ONEWEB-0020             
1 45133U 20008C   24143.48876024  .00000626  00000+0  17562-2 0  9995
2 45133  87.8958 186.4848 0002197  89.9833 270.1546 13.10373951209370
ONEWEB-0021             
1 45134U 20008D   24143.50369497  .00000435  00000+0  12103-2 0  9994
2 45134  87.8958 186.4958 0002096  95.1350 265.0017 13.10371285209682
ONEWEB-0023             
1 45136U 20008F   24143.51612714 -.00000188  00000+0 -57524-3 0  9994
2 45136  87.8955 186.4836 0001669  90.2008 269.9311 13.10368422209114
ONEWEB-0024             
1 45137U 20008G   24143.48709258  .00000610  00000+0  17111-2 0  9996
2 45137  87.8950 186.4800 0002165  97.2549 262.8825 13.10376251209278
ONEWEB-0025             
1 45138U 20008H   24143.50535247  .00000394  00000+0  10933-2 0  9999
2 45138  87.8946 186.4760 0001879  96.9142 263.2199 13.10370956209607
ONEWEB-0026             
1 45139U 20008J   24143.51531503  .00001294  00000+0  36197-2 0  9992
2 45139  87.8976 171.3997 0002231  89.5752 270.5632 13.11339329212948
ONEWEB-0028             
1 45140U 20008K   24143.47039214  .00002917  00000+0  81952-2 0  9993
2 45140  87.8966 171.4494 0001710 110.1802 249.9510 13.11379733209573
ONEWEB-0032             
1 45141U 20008L   24143.13848995 -.00000428  00000+0 -12614-2 0  9997
2 45141  87.8949 186.5946 0002040 102.0272 258.1084 13.10370686209285
